ORBCOMM FM115           
1 41186U 15081H   25082.71782438  .00003018  00000+0  62677-3 0  9994
2 41186  46.9969  85.9898 0001258 319.9448  40.1346 14.62253035495261
ORBCOMM FM108           
1 41187U 15081J   25082.58381739  .00003442  00000+0  77861-3 0  9991
2 41187  47.0029 151.1816 0003825 271.5645  88.4803 14.57973182494304
ORBCOMM FM117           
1 41188U 15081K   25082.89273113  .00003265  00000+0  74039-3 0  9999
2 41188  46.9992 148.5145 0004196 279.8183  80.2228 14.57972898494390
ORBCOMM FM116           
1 41189U 15081L   25082.88390837  .00003053  00000+0  69549-3 0  9997
2 41189  47.0003 238.4218 0001137 340.5449  19.5393 14.57923086493201
